[{"OBJECT_NAME":"SIRIUSSAT-2","OBJECT_ID":"1998-067PH","EPOCH":"2020-12-09T08:46:22.935936","MEAN_MOTION":16.40921535,"ECCENTRICITY":0.0006261,"INCLINATION":51.6062,"RA_OF_ASC_NODE":99.6513,"ARG_OF_PERICENTER":312.7483,"MEAN_ANOMALY":99.6145,"EPHEMERIS_TYPE":0,"CLASSIFICATION_TYPE":"U","NORAD_CAT_ID":43596,"ELEMENT_SET_NO":999,"REV_AT_EPOCH":13274,"BSTAR":0.00057179,"MEAN_MOTION_DOT":0.08904132,"MEAN_MOTION_DDOT":1.2494e-5},{"OBJECT_NAME":"1998-067PN","OBJECT_ID":"1998-067PN","EPOCH":"2020-12-14T13:40:50.968704","MEAN_MOTION":15.70064441,"ECCENTRICITY":0.000195,"INCLINATION":51.6342,"RA_OF_ASC_NODE":117.1946,"ARG_OF_PERICENTER":343.2802,"MEAN_ANOMALY":16.813,"EPHEMERIS_TYPE":0,"CLASSIFICATION_TYPE":"U","NORAD_CAT_ID":43638,"ELEMENT_SET_NO":999,"REV_AT_EPOCH":12491,"BSTAR":0.00022036,"MEAN_MOTION_DOT":0.0002663,"MEAN_MOTION_DDOT":0},{"OBJECT_NAME":"1998-067PP","OBJECT_ID":"1998-067PP","EPOCH":"2020-12-14T13:31:09.851808","MEAN_MOTION":15.82124404,"ECCENTRICITY":0.0004264,"INCLINATION":51.6309,"RA_OF_ASC_NODE":99.0258,"ARG_OF_PERICENTER":347.6744,"MEAN_ANOMALY":12.4154,"EPHEMERIS_TYPE":0,"CLASSIFICATION_TYPE":"U","NORAD_CAT_ID":43639,"ELEMENT_SET_NO":999,"REV_AT_EPOCH":12515,"BSTAR":0.00032436,"MEAN_MOTION_DOT":0.00067821,"MEAN_MOTION_DDOT":0},{"OBJECT_NAME":"STARS-ME","OBJECT_ID":"1998-067PQ","EPOCH":"2020-12-14T14:27:02.234880","MEAN_MOTION":15.73361269,"ECCENTRICITY":0.0003739,"INCLINATION":51.6322,"RA_OF_ASC_NODE":110.5686,"ARG_OF_PERICENTER":345.1163,"MEAN_ANOMALY":14.9725,"EPHEMERIS_TYPE":0,"CLASSIFICATION_TYPE":"U","NORAD_CAT_ID":43640,"ELEMENT_SET_NO":999,"REV_AT_EPOCH":12500,"BSTAR":0.00026394,"MEAN_MOTION_DOT":0.00036913,"MEAN_MOTION_DDOT":0},{"OBJECT_NAME":"ISS DEB (SEDA-AP)","OBJECT_ID":"1998-067PU","EPOCH":"2020-12-14T18:59:50.756352","MEAN_MOTION":15.59670844,"ECCENTRICITY":0.0003734,"INCLINATION":51.635,"RA_OF_ASC_NODE":141.2923,"ARG_OF_PERICENTER":5.9395,"MEAN_ANOMALY":354.1641,"EPHEMERIS_TYPE":0,"CLASSIFICATION_TYPE":"U","NORAD_CAT_ID":43870,"ELEMENT_SET_NO":999,"REV_AT_EPOCH":11277,"BSTAR":9.1402e-5,"MEAN_MOTION_DOT":6.932e-5,"MEAN_MOTION_DDOT":0},{"OBJECT_NAME":"CATSAT-2","OBJECT_ID":"1998-067PV","EPOCH":"2020-12-15T01:38:47.126400","MEAN_MOTION":15.7602978,"ECCENTRICITY":0.0001868,"INCLINATION":51.6389,"RA_OF_ASC_NODE":115.3798,"ARG_OF_PERICENTER":23.7137,"MEAN_ANOMALY":336.3949,"EPHEMERIS_TYPE":0,"CLASSIFICATION_TYPE":"U","NORAD_CAT_ID":44029,"ELEMENT_SET_NO":999,"REV_AT_EPOCH":10688,"BSTAR":0.00036253,"MEAN_MOTION_DOT":0.00057372,"MEAN_MOTION_DDOT":0},{"OBJECT_NAME":"DELPHINI","OBJECT_ID":"1998-067PW","EPOCH":"2020-12-15T03:39:15.062688","MEAN_MOTION":15.79689737,"ECCENTRICITY":0.000288,"INCLINATION":51.6312,"RA_OF_ASC_NODE":111.1971,"ARG_OF_PERICENTER":352.5723,"MEAN_ANOMALY":7.5235,"EPHEMERIS_TYPE":0,"CLASSIFICATION_TYPE":"U","NORAD_CAT_ID":44030,"ELEMENT_SET_NO":999,"REV_AT_EPOCH":10691,"BSTAR":0.00045216,"MEAN_MOTION_DOT":0.00084846,"MEAN_MOTION_DDOT":0},{"OBJECT_NAME":"UNITE","OBJECT_ID":"1998-067PX","EPOCH":"2020-12-14T18:32:04.342272","MEAN_MOTION":15.66633016,"ECCENTRICITY":0.0001986,"INCLINATION":51.6362,"RA_OF_ASC_NODE":130.6441,"ARG_OF_PERICENTER":25.9785,"MEAN_ANOMALY":334.131,"EPHEMERIS_TYPE":0,"CLASSIFICATION_TYPE":"U","NORAD_CAT_ID":44031,"ELEMENT_SET_NO":999,"REV_AT_EPOCH":10662,"BSTAR":0.0002186,"MEAN_MOTION_DOT":0.00022885,"MEAN_MOTION_DDOT":0},{"OBJECT_NAME":"CATSAT-1","OBJECT_ID":"1998-067PZ","EPOCH":"2020-12-15T01:38:28.992768","MEAN_MOTION":15.76004858,"ECCENTRICITY":0.0001911,"INCLINATION":51.6389,"RA_OF_ASC_NODE":115.3884,"ARG_OF_PERICENTER":22.7688,"MEAN_ANOMALY":337.3396,"EPHEMERIS_TYPE":0,"CLASSIFICATION_TYPE":"U","NORAD_CAT_ID":44033,"ELEMENT_SET_NO":999,"REV_AT_EPOCH":10679,"BSTAR":0.00035943,"MEAN_MOTION_DOT":0.0005681,"MEAN_MOTION_DDOT":0},{"OBJECT_NAME":"ISS DEB","OBJECT_ID":"1998-067QA","EPOCH":"2020-12-14T18:55:40.132416","MEAN_MOTION":15.56373426,"ECCENTRICITY":0.0004715,"INCLINATION":51.6382,"RA_OF_ASC_NODE":158.6591,"ARG_OF_PERICENTER":275.2361,"MEAN_ANOMALY":84.8092,"EPHEMERIS_TYPE":0,"CLASSIFICATION_TYPE":"U","NORAD_CAT_ID":44303,"ELEMENT_SET_NO":999,"REV_AT_EPOCH":8782,"BSTAR":0.00010931,"MEAN_MOTION_DOT":7.374e-5,"MEAN_MOTION_DDOT":0},{"OBJECT_NAME":"ISS DEB","OBJECT_ID":"1998-067QB","EPOCH":"2020-12-14T13:59:08.852640","MEAN_MOTION":15.7469933,"ECCENTRICITY":0.0005316,"INCLINATION":51.6338,"RA_OF_ASC_NODE":136.1961,"ARG_OF_PERICENTER":271.5802,"MEAN_ANOMALY":88.4588,"EPHEMERIS_TYPE":0,"CLASSIFICATION_TYPE":"U","NORAD_CAT_ID":44304,"ELEMENT_SET_NO":999,"REV_AT_EPOCH":8811,"BSTAR":0.00049906,"MEAN_MOTION_DOT":0.0007493,"MEAN_MOTION_DDOT":0},{"OBJECT_NAME":"ISS DEB","OBJECT_ID":"1998-067QC","EPOCH":"2020-12-14T13:30:36.811584","MEAN_MOTION":15.86741255,"ECCENTRICITY":0.000633,"INCLINATION":51.6249,"RA_OF_ASC_NODE":126.0172,"ARG_OF_PERICENTER":310.197,"MEAN_ANOMALY":49.848,"EPHEMERIS_TYPE":0,"CLASSIFICATION_TYPE":"U","NORAD_CAT_ID":44305,"ELEMENT_SET_NO":999,"REV_AT_EPOCH":8824,"BSTAR":0.00072732,"MEAN_MOTION_DOT":0.00193792,"MEAN_MOTION_DDOT":0},{"OBJECT_NAME":"ISS DEB","OBJECT_ID":"1998-067QD","EPOCH":"2020-12-14T05:14:48.660000","MEAN_MOTION":15.56587461,"ECCENTRICITY":0.0005902,"INCLINATION":51.6368,"RA_OF_ASC_NODE":161.5237,"ARG_OF_PERICENTER":269.4883,"MEAN_ANOMALY":90.5432,"EPHEMERIS_TYPE":0,"CLASSIFICATION_TYPE":"U","NORAD_CAT_ID":44306,"ELEMENT_SET_NO":999,"REV_AT_EPOCH":8774,"BSTAR":0.00012702,"MEAN_MOTION_DOT":8.724e-5,"MEAN_MOTION_DDOT":0},{"OBJECT_NAME":"RAAVANA-1","OBJECT_ID":"1998-067QE","EPOCH":"2020-12-13T18:11:55.908672","MEAN_MOTION":15.63570481,"ECCENTRICITY":0.0004694,"INCLINATION":51.6355,"RA_OF_ASC_NODE":152.467,"ARG_OF_PERICENTER":303.1751,"MEAN_ANOMALY":56.8793,"EPHEMERIS_TYPE":0,"CLASSIFICATION_TYPE":"U","NORAD_CAT_ID":44329,"ELEMENT_SET_NO":999,"REV_AT_EPOCH":8499,"BSTAR":0.00030163,"MEAN_MOTION_DOT":0.00028123,"MEAN_MOTION_DDOT":0},{"OBJECT_NAME":"UGUISU","OBJECT_ID":"1998-067QF","EPOCH":"2020-12-14T17:48:57.748320","MEAN_MOTION":15.63453077,"ECCENTRICITY":0.0004758,"INCLINATION":51.6333,"RA_OF_ASC_NODE":147.7412,"ARG_OF_PERICENTER":307.46,"MEAN_ANOMALY":52.5962,"EPHEMERIS_TYPE":0,"CLASSIFICATION_TYPE":"U","NORAD_CAT_ID":44330,"ELEMENT_SET_NO":999,"REV_AT_EPOCH":8512,"BSTAR":0.00026933,"MEAN_MOTION_DOT":0.00024927,"MEAN_MOTION_DDOT":0},{"OBJECT_NAME":"NEPALISAT-1","OBJECT_ID":"1998-067QG","EPOCH":"2020-12-14T16:59:34.434816","MEAN_MOTION":15.63614296,"ECCENTRICITY":0.0004704,"INCLINATION":51.6337,"RA_OF_ASC_NODE":147.5137,"ARG_OF_PERICENTER":310.8202,"MEAN_ANOMALY":49.2384,"EPHEMERIS_TYPE":0,"CLASSIFICATION_TYPE":"U","NORAD_CAT_ID":44331,"ELEMENT_SET_NO":999,"REV_AT_EPOCH":8513,"BSTAR":0.00027123,"MEAN_MOTION_DOT":0.00025269,"MEAN_MOTION_DDOT":0},{"OBJECT_NAME":"SPOOQY-1","OBJECT_ID":"1998-067QH","EPOCH":"2020-12-14T03:40:36.280416","MEAN_MOTION":15.63334194,"ECCENTRICITY":0.0003867,"INCLINATION":51.6344,"RA_OF_ASC_NODE":150.5731,"ARG_OF_PERICENTER":309.7396,"MEAN_ANOMALY":50.3258,"EPHEMERIS_TYPE":0,"CLASSIFICATION_TYPE":"U","NORAD_CAT_ID":44332,"ELEMENT_SET_NO":999,"REV_AT_EPOCH":8500,"BSTAR":0.0002866,"MEAN_MOTION_DOT":0.00026435,"MEAN_MOTION_DDOT":0}]
